[{"OBJECT_NAME":"YAOGAN-40 02C","OBJECT_ID":"2025-096C","EPOCH":"2026-03-09T23:00:48.049344","MEAN_MOTION":14.12429028,"ECCENTRICITY":0.00019858,"INCLINATION":85.9918,"RA_OF_ASC_NODE":231.6606,"ARG_OF_PERICENTER":86.0596,"MEAN_ANOMALY":274.0814,"EPHEMERIS_TYPE":0,"CLASSIFICATION_TYPE":"U","NORAD_CAT_ID":63920,"ELEMENT_SET_NO":999,"REV_AT_EPOCH":6140,"BSTAR":0.00013239908,"MEAN_MOTION_DOT":2.63e-6,"MEAN_MOTION_DDOT":0},{"OBJECT_NAME":"FENGYUN 1C DEB","OBJECT_ID":"1999-025CNA","EPOCH":"2026-02-24T05:01:25.058784","MEAN_MOTION":14.17041662,"ECCENTRICITY":0.0126513,"INCLINATION":98.5528,"RA_OF_ASC_NODE":42.886,"ARG_OF_PERICENTER":1.5944,"MEAN_ANOMALY":358.561,"EPHEMERIS_TYPE":0,"CLASSIFICATION_TYPE":"U","NORAD_CAT_ID":31949,"ELEMENT_SET_NO":999,"REV_AT_EPOCH":96545,"BSTAR":0.00043702,"MEAN_MOTION_DOT":9.08e-6,"MEAN_MOTION_DDOT":0}]
